{"type": "FeatureCollection", "features": [ {"type": "Feature", "properties": {"norad_id": 28649, "name": "IRS-P5 (CARTOSAT-1)", "group": "resource", "lat": 24.09209174402381, "lon": 9.509708975389612, "alt_km": 595.329408405245, "timestamp": "2025-12-12T11:38:31.072684+00:00", "meta": {"OBJECT_NAME": "IRS-P5 (CARTOSAT-1)", "OBJECT_ID": "2005-017A", "EPOCH": "2025-12-12T01:51:55.441728", "MEAN_MOTION": 14.90400603, "ECCENTRICITY": 0.0001253, "INCLINATION": 97.5498, "RA_OF_ASC_NODE": 12.5203, "ARG_OF_PERICENTER": 46.8293, "MEAN_ANOMALY": 313.303, "EPHEMERIS_TYPE": 0, "CLASSIFICATION_TYPE": "U", "NORAD_CAT_ID": 28649, "ELEMENT_SET_NO": 999, "REV_AT_EPOCH": 11594, "BSTAR": 0.0002866, "MEAN_MOTION_DOT": 2.739e-05, "MEAN_MOTION_DDOT": 0}, "tle": {"line1": "1 28649U 05017A   25346.07772502  .00002739  00000+0  28660-3 0  9997", "line2": "2 28649  97.5498  12.5203 0001253  46.8293 313.3030 14.90400603115949"}}, "geometry": {"type": "Point", "coordinates": [9.509708975389612, 24.09209174402381]}}, {"type": "Feature", "properties": {"norad_id": 28893, "name": "SINAH 1", "group": "resource", "lat": 41.2256059224108, "lon": 107.72848421999981, "alt_km": 678.1984350817602, "timestamp": "2025-12-12T11:38:31.072695+00:00", "meta": {"OBJECT_NAME": "SINAH 1", "OBJECT_ID": "2005-043D", "EPOCH": "2025-12-12T03:14:59.271072", "MEAN_MOTION": 14.63961601, "ECCENTRICITY": 0.0015309, "INCLINATION": 98.2602, "RA_OF_ASC_NODE": 114.691, "ARG_OF_PERICENTER": 138.7726, "MEAN_ANOMALY": 221.4636, "EPHEMERIS_TYPE": 0, "CLASSIFICATION_TYPE": "U", "NORAD_CAT_ID": 28893, "ELEMENT_SET_NO": 999, "REV_AT_EPOCH": 7315, "BSTAR": 0.00016269, "MEAN_MOTION_DOT": 8.04e-06, "MEAN_MOTION_DDOT": 0}, "tle": {"line1": "1 28893U 05043D   25346.13540823  .00000804  00000+0  16269-3 0  9996", "line2": "2 28893  98.2602 114.6910 0015309 138.7726 221.4636 14.63961601 73150"}}, "geometry": {"type": "Point", "coordinates": [107.72848421999981, 41.2256059224108]}}, {"type": "Feature", "properties": {"norad_id": 29079, "name": "EROS B", "group": "resource", "lat": -43.85921671329606, "lon": 110.16791743458681, "alt_km": 369.55521608102663, "timestamp": "2025-12-12T11:38:31.072706+00:00", "meta": {"OBJECT_NAME": "EROS B", "OBJECT_ID": "2006-014A", "EPOCH": "2025-12-12T05:42:16.147296", "MEAN_MOTION": 15.68065058, "ECCENTRICITY": 0.0002055, "INCLINATION": 97.3464, "RA_OF_ASC_NODE": 102.7869, "ARG_OF_PERICENTER": 302.1835, "MEAN_ANOMALY": 57.9227, "EPHEMERIS_TYPE": 0, "CLASSIFICATION_TYPE": "U", "NORAD_CAT_ID": 29079, "ELEMENT_SET_NO": 999, "REV_AT_EPOCH": 9072, "BSTAR": 0.0018794, "MEAN_MOTION_DOT": 0.00213262, "MEAN_MOTION_DDOT": 0}, "tle": {"line1": "1 29079U 06014A   25346.23768689  .00213262  00000+0  18794-2 0  9993", "line2": "2 29079  97.3464 102.7869 0002055 302.1835  57.9227 15.68065058 90723"}}, "geometry": {"type": "Point", "coordinates": [110.16791743458681, -43.85921671329606]}}, {"type": "Feature", "properties": {"norad_id": 29228, "name": "RESURS-DK 1", "group": "resource", "lat": -67.28188427164605, "lon": 41.67803103279551, "alt_km": 531.529764239097, "timestamp": "2025-12-12T11:38:31.072716+00:00", "meta": {"OBJECT_NAME": "RESURS-DK 1", "OBJECT_ID": "2006-021A", "EPOCH": "2025-12-11T18:31:39.599904", "MEAN_MOTION": 15.12152295, "ECCENTRICITY": 0.0007332, "INCLINATION": 69.9332, "RA_OF_ASC_NODE": 104.3392, "ARG_OF_PERICENTER": 260.6062, "MEAN_ANOMALY": 99.4275, "EPHEMERIS_TYPE": 0, "CLASSIFICATION_TYPE": "U", "NORAD_CAT_ID": 29228, "ELEMENT_SET_NO": 999, "REV_AT_EPOCH": 7423, "BSTAR": 0.00025496, "MEAN_MOTION_DOT": 4.303e-05, "MEAN_MOTION_DDOT": 0}, "tle": {"line1": "1 29228U 06021A   25345.77198611  .00004303  00000+0  25496-3 0  9999", "line2": "2 29228  69.9332 104.3392 0007332 260.6062  99.4275 15.12152295 74231"}}, "geometry": {"type": "Point", "coordinates": [41.67803103279551, -67.28188427164605]}}, {"type": "Feature", "properties": {"norad_id": 29268, "name": "ARIRANG-2 (KOMPSAT-2)", "group": "resource", "lat": -52.37976116915353, "lon": -174.7490026508458, "alt_km": 676.1302250313884, "timestamp": "2025-12-12T11:38:31.072728+00:00", "meta": {"OBJECT_NAME": "ARIRANG-2 (KOMPSAT-2)", "OBJECT_ID": "2006-031A", "EPOCH": "2025-12-12T04:18:01.171872", "MEAN_MOTION": 14.64492194, "ECCENTRICITY": 0.0013554, "INCLINATION": 97.8263, "RA_OF_ASC_NODE": 174.6794, "ARG_OF_PERICENTER": 311.2691, "MEAN_ANOMALY": 183.937, "EPHEMERIS_TYPE": 0, "CLASSIFICATION_TYPE": "U", "NORAD_CAT_ID": 29268, "ELEMENT_SET_NO": 999, "REV_AT_EPOCH": 3410, "BSTAR": 0.00010603, "MEAN_MOTION_DOT": 5.17e-06, "MEAN_MOTION_DDOT": 0}, "tle": {"line1": "1 29268U 06031A   25346.17918023  .00000517  00000+0  10603-3 0  9993", "line2": "2 29268  97.8263 174.6794 0013554 311.2691 183.9370 14.64492194 34106"}}, "geometry": {"type": "Point", "coordinates": [-174.7490026508458, -52.37976116915353]}}, {"type": "Feature", "properties": {"norad_id": 29709, "name": "LAPAN-TUBSAT", "group": "resource", "lat": -41.845779848678376, "lon": 149.2847715598393, "alt_km": 626.1509488577149, "timestamp": "2025-12-12T11:38:31.072739+00:00", "meta": {"OBJECT_NAME": "LAPAN-TUBSAT", "OBJECT_ID": "2007-001A", "EPOCH": "2025-12-12T04:10:47.550144", "MEAN_MOTION": 14.85667916, "ECCENTRICITY": 0.0013634, "INCLINATION": 98.1261, "RA_OF_ASC_NODE": 336.319, "ARG_OF_PERICENTER": 75.6504, "MEAN_ANOMALY": 284.6223, "EPHEMERIS_TYPE": 0, "CLASSIFICATION_TYPE": "U", "NORAD_CAT_ID": 29709, "ELEMENT_SET_NO": 999, "REV_AT_EPOCH": 2338, "BSTAR": 9.5582e-05, "MEAN_MOTION_DOT": 7.72e-06, "MEAN_MOTION_DDOT": 0}, "tle": {"line1": "1 29709U 07001A   25346.17416146  .00000772  00000+0  95582-4 0  9993", "line2": "2 29709  98.1261 336.3190 0013634  75.6504 284.6223 14.85667916 23381"}}, "geometry": {"type": "Point", "coordinates": [149.2847715598393, -41.845779848678376]}}, {"type": "Feature", "properties": {"norad_id": 31113, "name": "HAIYANG-1B", "group": "resource", "lat": 22.012810644712314, "lon": 154.1700820021544, "alt_km": 793.1772792737038, "timestamp": "2025-12-12T11:38:31.072750+00:00", "meta": {"OBJECT_NAME": "HAIYANG-1B", "OBJECT_ID": "2007-010A", "EPOCH": "2025-12-11T23:09:42.347808", "MEAN_MOTION": 14.30964631, "ECCENTRICITY": 0.0014287, "INCLINATION": 98.3314, "RA_OF_ASC_NODE": 330.2752, "ARG_OF_PERICENTER": 40.1135, "MEAN_ANOMALY": 320.11, "EPHEMERIS_TYPE": 0, "CLASSIFICATION_TYPE": "U", "NORAD_CAT_ID": 31113, "ELEMENT_SET_NO": 999, "REV_AT_EPOCH": 97385, "BSTAR": 9.6517e-05, "MEAN_MOTION_DOT": 2.12e-06, "MEAN_MOTION_DDOT": 0}, "tle": {"line1": "1 31113U 07010A   25345.96507347  .00000212  00000+0  96517-4 0  9993", "line2": "2 31113  98.3314 330.2752 0014287  40.1135 320.1100 14.30964631973853"}}, "geometry": {"type": "Point", "coordinates": [154.1700820021544, 22.012810644712314]}}, {"type": "Feature", "properties": {"norad_id": 31598, "name": "COSMO-SKYMED 1", "group": "resource", "lat": 10.754468732417926, "lon": -6.609515435379451, "alt_km": 581.4297293608734, "timestamp": "2025-12-12T11:38:31.072760+00:00", "meta": {"OBJECT_NAME": "COSMO-SKYMED 1", "OBJECT_ID": "2007-023A", "EPOCH": "2025-12-12T04:28:00.117408", "MEAN_MOTION": 14.95757309, "ECCENTRICITY": 0.000116, "INCLINATION": 97.8835, "RA_OF_ASC_NODE": 171.5816, "ARG_OF_PERICENTER": 88.511, "MEAN_ANOMALY": 271.6243, "EPHEMERIS_TYPE": 0, "CLASSIFICATION_TYPE": "U", "NORAD_CAT_ID": 31598, "ELEMENT_SET_NO": 999, "REV_AT_EPOCH": 182, "BSTAR": 0.00055658, "MEAN_MOTION_DOT": 6.147e-05, "MEAN_MOTION_DDOT": 0}, "tle": {"line1": "1 31598U 07023A   25346.18611247  .00006147  00000+0  55658-3 0  9997", "line2": "2 31598  97.8835 171.5816 0001160  88.5110 271.6243 14.95757309  1824"}}, "geometry": {"type": "Point", "coordinates": [-6.609515435379451, 10.754468732417926]}}, {"type": "Feature", "properties": {"norad_id": 31698, "name": "TERRASAR-X", "group": "resource", "lat": 16.20412818007707, "lon": 174.04749732551298, "alt_km": 508.7764842828319, "timestamp": "2025-12-12T11:38:31.072771+00:00", "meta": {"OBJECT_NAME": "TERRASAR-X", "OBJECT_ID": "2007-026A", "EPOCH": "2025-12-11T11:12:43.517376", "MEAN_MOTION": 15.19155336, "ECCENTRICITY": 0.00018891, "INCLINATION": 97.4455, "RA_OF_ASC_NODE": 350.8663, "ARG_OF_PERICENTER": 92.9175, "MEAN_ANOMALY": 267.2276, "EPHEMERIS_TYPE": 0, "CLASSIFICATION_TYPE": "U", "NORAD_CAT_ID": 31698, "ELEMENT_SET_NO": 999, "REV_AT_EPOCH": 2472, "BSTAR": 9.3381918e-05, "MEAN_MOTION_DOT": 1.895e-05, "MEAN_MOTION_DDOT": 0}, "tle": {"line1": "1 31698U 07026A   25345.46717034  .00001895  00000+0  93382-4 0  9994", "line2": "2 31698  97.4455 350.8663 0001889  92.9175 267.2276 15.19155336 24729"}}, "geometry": {"type": "Point", "coordinates": [174.04749732551298, 16.20412818007707]}}, {"type": "Feature", "properties": {"norad_id": 32060, "name": "WORLDVIEW-1 (WV-1)", "group": "resource", "lat": 19.98284799497956, "lon": -73.32803483948065, "alt_km": 491.6020340821433, "timestamp": "2025-12-12T11:38:31.072782+00:00", "meta": {"OBJECT_NAME": "WORLDVIEW-1 (WV-1)", "OBJECT_ID": "2007-041A", "EPOCH": "2025-12-11T20:46:03.519264", "MEAN_MOTION": 15.24666792, "ECCENTRICITY": 7.76e-05, "INCLINATION": 97.3834, "RA_OF_ASC_NODE": 103.3584, "ARG_OF_PERICENTER": 106.7241, "MEAN_ANOMALY": 253.4082, "EPHEMERIS_TYPE": 0, "CLASSIFICATION_TYPE": "U", "NORAD_CAT_ID": 32060, "ELEMENT_SET_NO": 999, "REV_AT_EPOCH": 1434, "BSTAR": 0.00050525, "MEAN_MOTION_DOT": 0.00012422, "MEAN_MOTION_DDOT": 0}, "tle": {"line1": "1 32060U 07041A   25345.86531851  .00012422  00000+0  50525-3 0  9999", "line2": "2 32060  97.3834 103.3584 0000776 106.7241 253.4082 15.24666792 14346"}}, "geometry": {"type": "Point", "coordinates": [-73.32803483948065, 19.98284799497956]}}]}